{"type": "FeatureCollection", "features": [ {"type": "Feature", "properties": {"norad_id": 38054, "name": "COSMOS 2251 DEB", "group": "cosmos-2251-debris", "lat": -67.94949028665366, "lon": 116.89556931722763, "alt_km": 795.4951438394155, "timestamp": "2025-12-21T09:37:23.052908+00:00", "meta": {"OBJECT_NAME": "COSMOS 2251 DEB", "OBJECT_ID": "1993-036BRL", "EPOCH": "2025-12-20T18:35:17.689920", "MEAN_MOTION": 13.62376854, "ECCENTRICITY": 0.03575009, "INCLINATION": 73.9533, "RA_OF_ASC_NODE": 252.6421, "ARG_OF_PERICENTER": 229.1382, "MEAN_ANOMALY": 192.3982, "EPHEMERIS_TYPE": 0, "CLASSIFICATION_TYPE": "U", "NORAD_CAT_ID": 38054, "ELEMENT_SET_NO": 999, "REV_AT_EPOCH": 67289, "BSTAR": 0.0012229004, "MEAN_MOTION_DOT": 1.432e-05, "MEAN_MOTION_DDOT": 0}, "tle": {"line1": "1 38054U 93036BRL 25354.77451030  .00001432  00000+0  12229-2 0  9994", "line2": "2 38054  73.9533 252.6421 0357500 229.1382 192.3982 13.62376854672892"}}, "geometry": {"type": "Point", "coordinates": [116.89556931722763, -67.94949028665366]}}, {"type": "Feature", "properties": {"norad_id": 38055, "name": "COSMOS 2251 DEB", "group": "cosmos-2251-debris", "lat": 22.50862206328302, "lon": 2.923328213850076, "alt_km": 681.1765681521119, "timestamp": "2025-12-21T09:37:23.052918+00:00", "meta": {"OBJECT_NAME": "COSMOS 2251 DEB", "OBJECT_ID": "1993-036BRM", "EPOCH": "2025-12-20T07:43:08.868288", "MEAN_MOTION": 14.77047435, "ECCENTRICITY": 0.00660367, "INCLINATION": 74.0077, "RA_OF_ASC_NODE": 191.8677, "ARG_OF_PERICENTER": 317.7505, "MEAN_ANOMALY": 222.1264, "EPHEMERIS_TYPE": 0, "CLASSIFICATION_TYPE": "U", "NORAD_CAT_ID": 38055, "ELEMENT_SET_NO": 999, "REV_AT_EPOCH": 60794, "BSTAR": 0.00044182386, "MEAN_MOTION_DOT": 3.197e-05, "MEAN_MOTION_DDOT": 0}, "tle": {"line1": "1 38055U 93036BRM 25354.32163042  .00003197  00000+0  44182-3 0  9993", "line2": "2 38055  74.0077 191.8677 0066036 317.7505 222.1264 14.77047435607943"}}, "geometry": {"type": "Point", "coordinates": [2.923328213850076, 22.50862206328302]}}, {"type": "Feature", "properties": {"norad_id": 38060, "name": "COSMOS 2251 DEB", "group": "cosmos-2251-debris", "lat": -27.186198099947013, "lon": -89.76885942047824, "alt_km": 659.7144967996683, "timestamp": "2025-12-21T09:37:23.052928+00:00", "meta": {"OBJECT_NAME": "COSMOS 2251 DEB", "OBJECT_ID": "1993-036BRS", "EPOCH": "2025-12-21T01:33:01.987776", "MEAN_MOTION": 14.63900324, "ECCENTRICITY": 0.0058488, "INCLINATION": 74.0436, "RA_OF_ASC_NODE": 279.3269, "ARG_OF_PERICENTER": 23.1556, "MEAN_ANOMALY": 337.2227, "EPHEMERIS_TYPE": 0, "CLASSIFICATION_TYPE": "U", "NORAD_CAT_ID": 38060, "ELEMENT_SET_NO": 999, "REV_AT_EPOCH": 72086, "BSTAR": 0.00036512, "MEAN_MOTION_DOT": 1.926e-05, "MEAN_MOTION_DDOT": 0}, "tle": {"line1": "1 38060U 93036BRS 25355.06460634  .00001926  00000+0  36512-3 0  9994", "line2": "2 38060  74.0436 279.3269 0058488  23.1556 337.2227 14.63900324720867"}}, "geometry": {"type": "Point", "coordinates": [-89.76885942047824, -27.186198099947013]}}, {"type": "Feature", "properties": {"norad_id": 38062, "name": "COSMOS 2251 DEB", "group": "cosmos-2251-debris", "lat": -11.784000743892552, "lon": 96.4011819055497, "alt_km": 593.6282265406189, "timestamp": "2025-12-21T09:37:23.052938+00:00", "meta": {"OBJECT_NAME": "COSMOS 2251 DEB", "OBJECT_ID": "1993-036BRU", "EPOCH": "2025-12-20T12:40:12.328608", "MEAN_MOTION": 14.95206267, "ECCENTRICITY": 0.00129431, "INCLINATION": 74.0088, "RA_OF_ASC_NODE": 274.7346, "ARG_OF_PERICENTER": 42.7602, "MEAN_ANOMALY": 131.9089, "EPHEMERIS_TYPE": 0, "CLASSIFICATION_TYPE": "U", "NORAD_CAT_ID": 38062, "ELEMENT_SET_NO": 999, "REV_AT_EPOCH": 63146, "BSTAR": 0.0014745207, "MEAN_MOTION_DOT": 0.00016237, "MEAN_MOTION_DDOT": 0}, "tle": {"line1": "1 38062U 93036BRU 25354.52792047  .00016237  00000+0  14745-2 0  9996", "line2": "2 38062  74.0088 274.7346 0012943  42.7602 131.9089 14.95206267631464"}}, "geometry": {"type": "Point", "coordinates": [96.4011819055497, -11.784000743892552]}}, {"type": "Feature", "properties": {"norad_id": 38064, "name": "COSMOS 2251 DEB", "group": "cosmos-2251-debris", "lat": -15.010546740795904, "lon": 103.28730937695572, "alt_km": 725.3070357297702, "timestamp": "2025-12-21T09:37:23.052948+00:00", "meta": {"OBJECT_NAME": "COSMOS 2251 DEB", "OBJECT_ID": "1993-036BRW", "EPOCH": "2025-12-19T18:07:41.080512", "MEAN_MOTION": 14.56354752, "ECCENTRICITY": 0.0047209, "INCLINATION": 74.0226, "RA_OF_ASC_NODE": 110.8167, "ARG_OF_PERICENTER": 229.1842, "MEAN_ANOMALY": 130.5224, "EPHEMERIS_TYPE": 0, "CLASSIFICATION_TYPE": "U", "NORAD_CAT_ID": 38064, "ELEMENT_SET_NO": 999, "REV_AT_EPOCH": 71967, "BSTAR": 0.00064457855, "MEAN_MOTION_DOT": 2.872e-05, "MEAN_MOTION_DDOT": 0}, "tle": {"line1": "1 38064U 93036BRW 25353.75533658  .00002872  00000+0  64458-3 0  9990", "line2": "2 38064  74.0226 110.8167 0047209 229.1842 130.5224 14.56354752719677"}}, "geometry": {"type": "Point", "coordinates": [103.28730937695572, -15.010546740795904]}}, {"type": "Feature", "properties": {"norad_id": 38067, "name": "COSMOS 2251 DEB", "group": "cosmos-2251-debris", "lat": 60.77091492078104, "lon": 47.11418963743821, "alt_km": 667.2506531396994, "timestamp": "2025-12-21T09:37:23.052958+00:00", "meta": {"OBJECT_NAME": "COSMOS 2251 DEB", "OBJECT_ID": "1993-036BRZ", "EPOCH": "2025-12-20T00:18:38.290752", "MEAN_MOTION": 14.61151533, "ECCENTRICITY": 0.00696951, "INCLINATION": 74.0171, "RA_OF_ASC_NODE": 260.5817, "ARG_OF_PERICENTER": 46.2502, "MEAN_ANOMALY": 329.5601, "EPHEMERIS_TYPE": 0, "CLASSIFICATION_TYPE": "U", "NORAD_CAT_ID": 38067, "ELEMENT_SET_NO": 999, "REV_AT_EPOCH": 62662, "BSTAR": 0.00024256948, "MEAN_MOTION_DOT": 1.204e-05, "MEAN_MOTION_DDOT": 0}, "tle": {"line1": "1 38067U 93036BRZ 25354.01294318  .00001204  00000+0  24257-3 0  9991", "line2": "2 38067  74.0171 260.5817 0069695  46.2502 329.5601 14.61151533626627"}}, "geometry": {"type": "Point", "coordinates": [47.11418963743821, 60.77091492078104]}}, {"type": "Feature", "properties": {"norad_id": 38068, "name": "COSMOS 2251 DEB", "group": "cosmos-2251-debris", "lat": 5.226432746966552, "lon": 110.84174289161744, "alt_km": 789.2484135678706, "timestamp": "2025-12-21T09:37:23.052968+00:00", "meta": {"OBJECT_NAME": "COSMOS 2251 DEB", "OBJECT_ID": "1993-036BSA", "EPOCH": "2025-11-26T00:12:22.263264", "MEAN_MOTION": 14.35960004, "ECCENTRICITY": 0.00240903, "INCLINATION": 74.0219, "RA_OF_ASC_NODE": 338.9788, "ARG_OF_PERICENTER": 72.1007, "MEAN_ANOMALY": 288.2769, "EPHEMERIS_TYPE": 0, "CLASSIFICATION_TYPE": "U", "NORAD_CAT_ID": 38068, "ELEMENT_SET_NO": 999, "REV_AT_EPOCH": 66406, "BSTAR": 0.00028750999, "MEAN_MOTION_DOT": 8.11e-06, "MEAN_MOTION_DDOT": 0}, "tle": {"line1": "1 38068U 93036BSA 25330.00859101  .00000811  00000+0  28751-3 0  9998", "line2": "2 38068  74.0219 338.9788 0024090  72.1007 288.2769 14.35960004664064"}}, "geometry": {"type": "Point", "coordinates": [110.84174289161744, 5.226432746966552]}}, {"type": "Feature", "properties": {"norad_id": 38197, "name": "COSMOS 2251 DEB", "group": "cosmos-2251-debris", "lat": -72.80435244754258, "lon": -88.55976775078601, "alt_km": 610.2752759469486, "timestamp": "2025-12-21T09:37:23.052978+00:00", "meta": {"OBJECT_NAME": "COSMOS 2251 DEB", "OBJECT_ID": "1993-036BSM", "EPOCH": "2025-12-21T05:07:08.655168", "MEAN_MOTION": 14.743947, "ECCENTRICITY": 0.0125014, "INCLINATION": 73.9376, "RA_OF_ASC_NODE": 340.4011, "ARG_OF_PERICENTER": 215.8524, "MEAN_ANOMALY": 143.4213, "EPHEMERIS_TYPE": 0, "CLASSIFICATION_TYPE": "U", "NORAD_CAT_ID": 38197, "ELEMENT_SET_NO": 999, "REV_AT_EPOCH": 85880, "BSTAR": 0.0020186, "MEAN_MOTION_DOT": 0.00015188, "MEAN_MOTION_DDOT": 0}, "tle": {"line1": "1 38197U 93036BSM 25355.21329462  .00015188  00000+0  20186-2 0  9999", "line2": "2 38197  73.9376 340.4011 0125014 215.8524 143.4213 14.74394700858804"}}, "geometry": {"type": "Point", "coordinates": [-88.55976775078601, -72.80435244754258]}}, {"type": "Feature", "properties": {"norad_id": 38199, "name": "COSMOS 2251 DEB", "group": "cosmos-2251-debris", "lat": -65.41443232729667, "lon": -93.06907787185006, "alt_km": 975.4823295656824, "timestamp": "2025-12-21T09:37:23.052988+00:00", "meta": {"OBJECT_NAME": "COSMOS 2251 DEB", "OBJECT_ID": "1993-036BSP", "EPOCH": "2025-12-18T20:33:26.116992", "MEAN_MOTION": 13.64802181, "ECCENTRICITY": 0.0369926, "INCLINATION": 73.9559, "RA_OF_ASC_NODE": 52.1388, "ARG_OF_PERICENTER": 337.4029, "MEAN_ANOMALY": 21.1146, "EPHEMERIS_TYPE": 0, "CLASSIFICATION_TYPE": "U", "NORAD_CAT_ID": 38199, "ELEMENT_SET_NO": 999, "REV_AT_EPOCH": 61105, "BSTAR": 0.00049100524, "MEAN_MOTION_DOT": 6.08e-06, "MEAN_MOTION_DDOT": 0}, "tle": {"line1": "1 38199U 93036BSP 25352.85655228  .00000608  00000+0  49101-3 0  9990", "line2": "2 38199  73.9559  52.1388 0369926 337.4029  21.1146 13.64802181611052"}}, "geometry": {"type": "Point", "coordinates": [-93.06907787185006, -65.41443232729667]}}, {"type": "Feature", "properties": {"norad_id": 38208, "name": "COSMOS 2251 DEB", "group": "cosmos-2251-debris", "lat": 9.813695474355828, "lon": -121.12937142937186, "alt_km": 616.4390886547799, "timestamp": "2025-12-21T09:37:23.052999+00:00", "meta": {"OBJECT_NAME": "COSMOS 2251 DEB", "OBJECT_ID": "1993-036BSY", "EPOCH": "2025-12-16T00:13:39.722592", "MEAN_MOTION": 14.84023361, "ECCENTRICITY": 0.00017369, "INCLINATION": 74.0064, "RA_OF_ASC_NODE": 72.4172, "ARG_OF_PERICENTER": 150.2716, "MEAN_ANOMALY": 26.1687, "EPHEMERIS_TYPE": 0, "CLASSIFICATION_TYPE": "U", "NORAD_CAT_ID": 38208, "ELEMENT_SET_NO": 999, "REV_AT_EPOCH": 71207, "BSTAR": 0.0016436813, "MEAN_MOTION_DOT": 0.00013687, "MEAN_MOTION_DDOT": 0}, "tle": {"line1": "1 38208U 93036BSY 25350.00948753  .00013687  00000+0  16437-2 0  9990", "line2": "2 38208  74.0064  72.4172 0001736 150.2716  26.1687 14.84023361712075"}}, "geometry": {"type": "Point", "coordinates": [-121.12937142937186, 9.813695474355828]}}]}